[{"OBJECT_NAME":"ONEWEB-0528","OBJECT_ID":"2022-166B","EPOCH":"2026-01-28T16:03:05.518368","MEAN_MOTION":13.21825848,"ECCENTRICITY":0.00014709,"INCLINATION":87.9198,"RA_OF_ASC_NODE":271.8357,"ARG_OF_PERICENTER":80.2991,"MEAN_ANOMALY":279.8309,"EPHEMERIS_TYPE":0,"CLASSIFICATION_TYPE":"U","NORAD_CAT_ID":54643,"ELEMENT_SET_NO":999,"REV_AT_EPOCH":15311,"BSTAR":-0.00094300313,"MEAN_MOTION_DOT":-3.76e-6,"MEAN_MOTION_DDOT":0},{"OBJECT_NAME":"ONEWEB-0539","OBJECT_ID":"2022-166C","EPOCH":"2026-01-28T16:57:37.641888","MEAN_MOTION":13.21827083,"ECCENTRICITY":0.00015145,"INCLINATION":87.9195,"RA_OF_ASC_NODE":271.793,"ARG_OF_PERICENTER":74.399,"MEAN_ANOMALY":285.7311,"EPHEMERIS_TYPE":0,"CLASSIFICATION_TYPE":"U","NORAD_CAT_ID":54644,"ELEMENT_SET_NO":999,"REV_AT_EPOCH":15311,"BSTAR":0.00022702147,"MEAN_MOTION_DOT":1.07e-6,"MEAN_MOTION_DDOT":0},{"OBJECT_NAME":"ONEWEB-0540","OBJECT_ID":"2022-166D","EPOCH":"2026-01-28T17:07:17.292576","MEAN_MOTION":13.21824811,"ECCENTRICITY":0.00016382,"INCLINATION":87.9198,"RA_OF_ASC_NODE":271.8289,"ARG_OF_PERICENTER":76.9063,"MEAN_ANOMALY":283.2254,"EPHEMERIS_TYPE":0,"CLASSIFICATION_TYPE":"U","NORAD_CAT_ID":54645,"ELEMENT_SET_NO":999,"REV_AT_EPOCH":15310,"BSTAR":-0.00015906987,"MEAN_MOTION_DOT":-5.3e-7,"MEAN_MOTION_DDOT":0},{"OBJECT_NAME":"ONEWEB-0542","OBJECT_ID":"2022-166E","EPOCH":"2026-01-28T17:11:50.523072","MEAN_MOTION":13.21827051,"ECCENTRICITY":0.00016802,"INCLINATION":87.9201,"RA_OF_ASC_NODE":271.786,"ARG_OF_PERICENTER":69.2418,"MEAN_ANOMALY":290.8896,"EPHEMERIS_TYPE":0,"CLASSIFICATION_TYPE":"U","NORAD_CAT_ID":54646,"ELEMENT_SET_NO":999,"REV_AT_EPOCH":15311,"BSTAR":3.5058539e-5,"MEAN_MOTION_DOT":2.7e-7,"MEAN_MOTION_DDOT":0},{"OBJECT_NAME":"ONEWEB-0545","OBJECT_ID":"2022-166F","EPOCH":"2026-01-28T16:22:04.640160","MEAN_MOTION":13.21827097,"ECCENTRICITY":0.00018574,"INCLINATION":87.9201,"RA_OF_ASC_NODE":271.8147,"ARG_OF_PERICENTER":69.383,"MEAN_ANOMALY":290.7503,"EPHEMERIS_TYPE":0,"CLASSIFICATION_TYPE":"U","NORAD_CAT_ID":54647,"ELEMENT_SET_NO":999,"REV_AT_EPOCH":15307,"BSTAR":-4.760683e-6,"MEAN_MOTION_DOT":1.1e-7,"MEAN_MOTION_DDOT":0},{"OBJECT_NAME":"ONEWEB-0580","OBJECT_ID":"2022-166G","EPOCH":"2026-01-28T15:44:09.375648","MEAN_MOTION":13.21825617,"ECCENTRICITY":0.00018507,"INCLINATION":87.9195,"RA_OF_ASC_NODE":271.8199,"ARG_OF_PERICENTER":74.407,"MEAN_ANOMALY":285.7268,"EPHEMERIS_TYPE":0,"CLASSIFICATION_TYPE":"U","NORAD_CAT_ID":54648,"ELEMENT_SET_NO":999,"REV_AT_EPOCH":15311,"BSTAR":5.5307791e-5,"MEAN_MOTION_DOT":3.6e-7,"MEAN_MOTION_DDOT":0},{"OBJECT_NAME":"ONEWEB-0582","OBJECT_ID":"2022-166H","EPOCH":"2026-01-28T16:45:46.059264","MEAN_MOTION":13.21827977,"ECCENTRICITY":0.00019354,"INCLINATION":87.92,"RA_OF_ASC_NODE":271.8038,"ARG_OF_PERICENTER":69.0522,"MEAN_ANOMALY":291.0819,"EPHEMERIS_TYPE":0,"CLASSIFICATION_TYPE":"U","NORAD_CAT_ID":54649,"ELEMENT_SET_NO":999,"REV_AT_EPOCH":15309,"BSTAR":0.00028962503,"MEAN_MOTION_DOT":1.33e-6,"MEAN_MOTION_DDOT":0},{"OBJECT_NAME":"ONEWEB-0583","OBJECT_ID":"2022-166J","EPOCH":"2026-01-28T17:02:21.597216","MEAN_MOTION":13.21827325,"ECCENTRICITY":0.0001547,"INCLINATION":87.9199,"RA_OF_ASC_NODE":271.8262,"ARG_OF_PERICENTER":88.3632,"MEAN_ANOMALY":271.7679,"EPHEMERIS_TYPE":0,"CLASSIFICATION_TYPE":"U","NORAD_CAT_ID":54650,"ELEMENT_SET_NO":999,"REV_AT_EPOCH":15310,"BSTAR":0.00012105334,"MEAN_MOTION_DOT":6.3e-7,"MEAN_MOTION_DDOT":0},{"OBJECT_NAME":"ONEWEB-0584","OBJECT_ID":"2022-166K","EPOCH":"2026-01-28T17:30:47.853792","MEAN_MOTION":13.21828208,"ECCENTRICITY":0.0001892,"INCLINATION":87.9201,"RA_OF_ASC_NODE":271.8089,"ARG_OF_PERICENTER":74.333,"MEAN_ANOMALY":285.8013,"EPHEMERIS_TYPE":0,"CLASSIFICATION_TYPE":"U","NORAD_CAT_ID":54651,"ELEMENT_SET_NO":999,"REV_AT_EPOCH":15309,"BSTAR":-5.1780784e-5,"MEAN_MOTION_DOT":-8.0e-8,"MEAN_MOTION_DDOT":0},{"OBJECT_NAME":"ONEWEB-0585","OBJECT_ID":"2022-166L","EPOCH":"2026-01-28T18:06:19.855872","MEAN_MOTION":13.21825423,"ECCENTRICITY":0.00015448,"INCLINATION":87.92,"RA_OF_ASC_NODE":271.7885,"ARG_OF_PERICENTER":85.782,"MEAN_ANOMALY":274.3491,"EPHEMERIS_TYPE":0,"CLASSIFICATION_TYPE":"U","NORAD_CAT_ID":54652,"ELEMENT_SET_NO":999,"REV_AT_EPOCH":15310,"BSTAR":0.00012228324,"MEAN_MOTION_DOT":6.4e-7,"MEAN_MOTION_DDOT":0},{"OBJECT_NAME":"ONEWEB-0586","OBJECT_ID":"2022-166M","EPOCH":"2026-01-28T16:36:16.739424","MEAN_MOTION":13.2182503,"ECCENTRICITY":0.00015848,"INCLINATION":87.9202,"RA_OF_ASC_NODE":271.8257,"ARG_OF_PERICENTER":77.4147,"MEAN_ANOMALY":282.7164,"EPHEMERIS_TYPE":0,"CLASSIFICATION_TYPE":"U","NORAD_CAT_ID":54653,"ELEMENT_SET_NO":999,"REV_AT_EPOCH":15309,"BSTAR":-0.00014626786,"MEAN_MOTION_DOT":-4.7e-7,"MEAN_MOTION_DDOT":0},{"OBJECT_NAME":"ONEWEB-0587","OBJECT_ID":"2022-166N","EPOCH":"2026-01-28T16:50:30.401664","MEAN_MOTION":13.21827784,"ECCENTRICITY":0.00014391,"INCLINATION":87.9205,"RA_OF_ASC_NODE":271.7843,"ARG_OF_PERICENTER":96.3673,"MEAN_ANOMALY":263.7625,"EPHEMERIS_TYPE":0,"CLASSIFICATION_TYPE":"U","NORAD_CAT_ID":54654,"ELEMENT_SET_NO":999,"REV_AT_EPOCH":15325,"BSTAR":0.00016566955,"MEAN_MOTION_DOT":8.1e-7,"MEAN_MOTION_DDOT":0},{"OBJECT_NAME":"ONEWEB-0589","OBJECT_ID":"2022-166P","EPOCH":"2026-01-28T16:31:33.039840","MEAN_MOTION":13.2182716,"ECCENTRICITY":0.00022607,"INCLINATION":87.9199,"RA_OF_ASC_NODE":271.8167,"ARG_OF_PERICENTER":69.0997,"MEAN_ANOMALY":291.0379,"EPHEMERIS_TYPE":0,"CLASSIFICATION_TYPE":"U","NORAD_CAT_ID":54655,"ELEMENT_SET_NO":999,"REV_AT_EPOCH":15311,"BSTAR":1.0386368e-5,"MEAN_MOTION_DOT":1.7e-7,"MEAN_MOTION_DDOT":0},{"OBJECT_NAME":"ONEWEB-0590","OBJECT_ID":"2022-166Q","EPOCH":"2026-01-28T17:06:53.652672","MEAN_MOTION":13.21828116,"ECCENTRICITY":0.0001832,"INCLINATION":87.9201,"RA_OF_ASC_NODE":271.7892,"ARG_OF_PERICENTER":90.7139,"MEAN_ANOMALY":269.4204,"EPHEMERIS_TYPE":0,"CLASSIFICATION_TYPE":"U","NORAD_CAT_ID":54656,"ELEMENT_SET_NO":999,"REV_AT_EPOCH":15310,"BSTAR":0.0001120208,"MEAN_MOTION_DOT":5.9e-7,"MEAN_MOTION_DDOT":0},{"OBJECT_NAME":"ONEWEB-0591","OBJECT_ID":"2022-166R","EPOCH":"2026-01-28T17:23:41.058528","MEAN_MOTION":13.21825421,"ECCENTRICITY":0.00016058,"INCLINATION":87.9198,"RA_OF_ASC_NODE":271.81,"ARG_OF_PERICENTER":82.7955,"MEAN_ANOMALY":277.3361,"EPHEMERIS_TYPE":0,"CLASSIFICATION_TYPE":"U","NORAD_CAT_ID":54657,"ELEMENT_SET_NO":999,"REV_AT_EPOCH":15313,"BSTAR":-0.00015818318,"MEAN_MOTION_DOT":-5.2e-7,"MEAN_MOTION_DDOT":0},{"OBJECT_NAME":"ONEWEB-0592","OBJECT_ID":"2022-166S","EPOCH":"2026-01-28T15:39:25.681248","MEAN_MOTION":13.21824193,"ECCENTRICITY":0.00016147,"INCLINATION":87.9207,"RA_OF_ASC_NODE":271.7918,"ARG_OF_PERICENTER":81.3656,"MEAN_ANOMALY":278.7661,"EPHEMERIS_TYPE":0,"CLASSIFICATION_TYPE":"U","NORAD_CAT_ID":54658,"ELEMENT_SET_NO":999,"REV_AT_EPOCH":15300,"BSTAR":-3.8655253e-5,"MEAN_MOTION_DOT":-3.0e-8,"MEAN_MOTION_DDOT":0},{"OBJECT_NAME":"ONEWEB-0593","OBJECT_ID":"2022-166T","EPOCH":"2026-01-28T18:01:35.463360","MEAN_MOTION":13.21827595,"ECCENTRICITY":0.00015575,"INCLINATION":87.9199,"RA_OF_ASC_NODE":271.7943,"ARG_OF_PERICENTER":76.8663,"MEAN_ANOMALY":283.2645,"EPHEMERIS_TYPE":0,"CLASSIFICATION_TYPE":"U","NORAD_CAT_ID":54659,"ELEMENT_SET_NO":999,"REV_AT_EPOCH":15312,"BSTAR":1.4471074e-5,"MEAN_MOTION_DOT":1.9e-7,"MEAN_MOTION_DDOT":0},{"OBJECT_NAME":"ONEWEB-0594","OBJECT_ID":"2022-166U","EPOCH":"2026-01-28T16:41:01.992480","MEAN_MOTION":13.21824542,"ECCENTRICITY":0.00014138,"INCLINATION":87.92,"RA_OF_ASC_NODE":271.8229,"ARG_OF_PERICENTER":85.799,"MEAN_ANOMALY":274.3305,"EPHEMERIS_TYPE":0,"CLASSIFICATION_TYPE":"U","NORAD_CAT_ID":54660,"ELEMENT_SET_NO":999,"REV_AT_EPOCH":15313,"BSTAR":1.0851163e-5,"MEAN_MOTION_DOT":1.7e-7,"MEAN_MOTION_DDOT":0},{"OBJECT_NAME":"ONEWEB-0595","OBJECT_ID":"2022-166V","EPOCH":"2026-01-28T17:56:50.580096","MEAN_MOTION":13.21827205,"ECCENTRICITY":0.00014975,"INCLINATION":87.9196,"RA_OF_ASC_NODE":271.7858,"ARG_OF_PERICENTER":88.3793,"MEAN_ANOMALY":271.7512,"EPHEMERIS_TYPE":0,"CLASSIFICATION_TYPE":"U","NORAD_CAT_ID":54661,"ELEMENT_SET_NO":999,"REV_AT_EPOCH":15311,"BSTAR":8.5937191e-5,"MEAN_MOTION_DOT":4.9e-7,"MEAN_MOTION_DDOT":0},{"OBJECT_NAME":"ONEWEB-0596","OBJECT_ID":"2022-166W","EPOCH":"2026-01-28T17:18:56.196864","MEAN_MOTION":13.2182462,"ECCENTRICITY":0.00015632,"INCLINATION":87.9199,"RA_OF_ASC_NODE":271.8084,"ARG_OF_PERICENTER":83.8528,"MEAN_ANOMALY":276.2784,"EPHEMERIS_TYPE":0,"CLASSIFICATION_TYPE":"U","NORAD_CAT_ID":54662,"ELEMENT_SET_NO":999,"REV_AT_EPOCH":15311,"BSTAR":9.474643e-6,"MEAN_MOTION_DOT":1.7e-7,"MEAN_MOTION_DDOT":0},{"OBJECT_NAME":"ONEWEB-0597","OBJECT_ID":"2022-166X","EPOCH":"2026-01-28T16:52:52.783680","MEAN_MOTION":13.2182734,"ECCENTRICITY":0.00014829,"INCLINATION":87.9185,"RA_OF_ASC_NODE":271.8173,"ARG_OF_PERICENTER":75.8703,"MEAN_ANOMALY":284.2596,"EPHEMERIS_TYPE":0,"CLASSIFICATION_TYPE":"U","NORAD_CAT_ID":54663,"ELEMENT_SET_NO":999,"REV_AT_EPOCH":15311,"BSTAR":5.798131e-5,"MEAN_MOTION_DOT":3.7e-7,"MEAN_MOTION_DDOT":0},{"OBJECT_NAME":"ONEWEB-0600","OBJECT_ID":"2022-166Y","EPOCH":"2026-01-28T16:26:49.123392","MEAN_MOTION":13.21827233,"ECCENTRICITY":0.00015148,"INCLINATION":87.9202,"RA_OF_ASC_NODE":271.8114,"ARG_OF_PERICENTER":74.7651,"MEAN_ANOMALY":285.365,"EPHEMERIS_TYPE":0,"CLASSIFICATION_TYPE":"U","NORAD_CAT_ID":54664,"ELEMENT_SET_NO":999,"REV_AT_EPOCH":15308,"BSTAR":0.00012784796,"MEAN_MOTION_DOT":6.6e-7,"MEAN_MOTION_DDOT":0},{"OBJECT_NAME":"ONEWEB-0601","OBJECT_ID":"2022-166Z","EPOCH":"2026-01-28T18:03:58.222944","MEAN_MOTION":13.21827319,"ECCENTRICITY":0.00017682,"INCLINATION":87.92,"RA_OF_ASC_NODE":271.8158,"ARG_OF_PERICENTER":75.0649,"MEAN_ANOMALY":285.068,"EPHEMERIS_TYPE":0,"CLASSIFICATION_TYPE":"U","NORAD_CAT_ID":54665,"ELEMENT_SET_NO":999,"REV_AT_EPOCH":15328,"BSTAR":0.00018846341,"MEAN_MOTION_DOT":9.1e-7,"MEAN_MOTION_DDOT":0}]
